NORAD_CAT_ID,OBJECT_NAME,OBJECT_TYPE,EPOCH,MEAN_MOTION,ECCENTRICITY,INCLINATION,RA_OF_ASC_NODE,ARG_OF_PERICENTER,MEAN_ANOMALY,BSTAR,MEAN_MOTION_DOT,MEAN_MOTION_DDOT,TLE_LINE0,TLE_LINE1,TLE_LINE2,SEMIMAJOR_AXIS,PERIOD,APOGEE,PERIGEE,DECAYED
52847.0,STARLINK-4206,PAYLOAD,2023-02-24 01:25:52,15.08868576,0.0001395,53.2161,335.4475,77.9872,282.1277,0.0015428,0.0002437,0.0,0 STARLINK-4206,1 52847U 22062T   23055.05962986  .00024370  00000-0  15428-2 0  9996,2 52847  53.2161 335.4475 0001395  77.9872 282.1277 15.08868576 38762,6917.793,95.436,540.623,538.693,0.0
52847.0,STARLINK-4206,PAYLOAD,2023-02-24 18:55:06,15.08850675,0.0001206,53.2165,332.1754,95.8925,264.2204,0.00075445,0.00011743,0.0,0 STARLINK-4206,1 52847U 22062T   23055.78826907  .00011743  00000-0  75445-3 0  9994,2 52847  53.2165 332.1754 0001206  95.8925 264.2204 15.08850675 38389,6917.848,95.437,540.547,538.878,0.0
52847.0,STARLINK-4206,PAYLOAD,2023-02-25 01:16:38,15.08848664,0.0001344,53.2162,330.9864,92.9219,267.1927,0.00029593,4.426e-05,0.0,0 STARLINK-4206,1 52847U 22062T   23056.05322750  .00004426  00000-0  29593-3 0  9995,2 52847  53.2162 330.9864 0001344  92.9219 267.1927 15.08848664 38919,6917.854,95.437,540.649,538.789,0.0
52847.0,STARLINK-4206,PAYLOAD,2023-02-25 04:27:25,15.08854399,0.0001417,53.2161,330.3908,95.266,264.8494,0.0006105,9.445e-05,0.0,0 STARLINK-4206,1 52847U 22062T   23056.18570651  .00009445  00000-0  61050-3 0  9994,2 52847  53.2161 330.3908 0001417  95.2660 264.8494 15.08854399 38441,6917.836,95.437,540.682,538.721,0.0
52847.0,STARLINK-4206,PAYLOAD,2023-02-26 04:18:12,15.08858768,0.00013,53.2162,325.9302,89.1519,270.9622,0.0012105,0.00019039,0.0,0 STARLINK-4206,1 52847U 22062T   23057.17930882  .00019039  00000-0  12105-2 0  9996,2 52847  53.2162 325.9302 0001300  89.1519 270.9622 15.08858768 39082,6917.823,95.436,540.587,538.789,0.0
52847.0,STARLINK-4206,PAYLOAD,2023-02-27 02:33:35,15.08867401,0.0001684,53.2148,321.767,82.301,277.8174,0.0011502,0.00018079,0.0,0 STARLINK-4206,1 52847U 22062T   23058.10666216  .00018079  00000-0  11502-2 0  9990,2 52847  53.2148 321.7670 0001684  82.3010 277.8174 15.08867401 39222,6917.797,95.436,540.827,538.497,0.0
52847.0,STARLINK-4206,PAYLOAD,2023-02-28 02:24:21,15.08884651,0.0002369,53.2165,317.307,73.5716,286.5536,0.0012499,0.00019685,0.0,0 STARLINK-4206,1 52847U 22062T   23059.10024748  .00019685  00000-0  12499-2 0  9999,2 52847  53.2165 317.3070 0002369  73.5716 286.5536 15.08884651 39373,6917.744,95.435,541.248,537.97,0.0
52847.0,STARLINK-4206,PAYLOAD,2023-02-28 23:04:24,15.08786647,0.000146,53.2159,313.4388,74.256,285.8593,-9.1502e-05,-1.742e-05,0.0,0 STARLINK-4206,1 52847U 22062T   23059.96140041 -.00001742  00000-0 -91502-4 0  9999,2 52847  53.2159 313.4388 0001460  74.2560 285.8593 15.08786647 39013,6918.043,95.441,540.919,538.898,0.0
52847.0,STARLINK-4206,PAYLOAD,2023-02-28 23:04:25,15.08784921,0.0001433,53.2152,313.439,70.4118,289.7028,-0.00011928,-2.183e-05,0.0,0 STARLINK-4206,1 52847U 22062T   23059.96140084 -.00002183  00000-0 -11928-3 0  9999,2 52847  53.2152 313.4390 0001433  70.4118 289.7028 15.08784921 39509,6918.049,95.441,540.905,538.922,0.0
52847.0,STARLINK-4206,PAYLOAD,2023-03-01 21:19:49,15.08817234,0.0001456,53.2155,309.276,80.505,279.6106,0.0010739,0.00016834,0.0,0 STARLINK-4206,1 52847U 22062T   23060.88876970  .00016834  00000-0  10739-2 0  9996,2 52847  53.2155 309.2760 0001456  80.5050 279.6106 15.08817234 39158,6917.95,95.439,540.822,538.808,0.0
52847.0,STARLINK-4206,PAYLOAD,2023-03-01 22:55:13,15.088179,0.0001309,53.2157,308.9789,74.3487,285.765,0.0011231,0.0001762,0.0,0 STARLINK-4206,1 52847U 22062T   23060.95501160  .00017620  00000-0  11231-2 0  9992,2 52847  53.2157 308.9789 0001309  74.3487 285.7650 15.08817900 39656,6917.948,95.439,540.719,538.907,0.0
52847.0,STARLINK-4206,PAYLOAD,2023-03-02 19:35:13,15.08861845,0.0001542,53.2152,305.1142,66.9866,293.1288,0.0006739,0.0001046,0.0,0 STARLINK-4206,1 52847U 22062T   23061.81612355  .00010460  00000-0  67390-3 0  9990,2 52847  53.2152 305.1142 0001542  66.9866 293.1288 15.08861845 39297,6917.814,95.436,540.745,538.612,0.0
52847.0,STARLINK-4206,PAYLOAD,2023-03-02 22:45:59,15.08867822,0.0001621,53.2155,304.5199,70.3396,289.7771,0.00065624,0.00010179,0.0,0 STARLINK-4206,1 52847U 22062T   23061.94860029  .00010179  00000-0  65624-3 0  9992,2 52847  53.2155 304.5199 0001621  70.3396 289.7771 15.08867822 39806,6917.795,95.436,540.782,538.539,0.0
52847.0,STARLINK-4206,PAYLOAD,2023-03-03 22:36:44,15.08870395,0.0001135,53.2158,300.0606,78.8883,281.2236,0.00045437,6.957e-05,0.0,0 STARLINK-4206,1 52847U 22062T   23062.94218645  .00006957  00000-0  45437-3 0  9993,2 52847  53.2158 300.0606 0001135  78.8883 281.2236 15.08870395 39955,6917.787,95.436,540.438,538.867,0.0
52847.0,STARLINK-4206,PAYLOAD,2023-03-04 01:47:30,15.08876022,0.000112,53.2152,299.4637,80.4378,279.674,0.00068009,0.00010563,0.0,0 STARLINK-4206,1 52847U 22062T   23063.07466245  .00010563  00000-0  68009-3 0  9997,2 52847  53.2152 299.4637 0001120  80.4378 279.6740 15.08876022 39488,6917.77,95.435,540.41,538.86,0.0
52847.0,STARLINK-4206,PAYLOAD,2023-03-04 16:06:00,15.08830841,0.0001522,53.2161,296.7885,64.8239,295.2911,-0.00023739,-4.063e-05,0.0,0 STARLINK-4206,1 52847U 22062T   23063.67083356 -.00004063  00000-0 -23739-3 0  9992,2 52847  53.2161 296.7885 0001522  64.8239 295.2911 15.08830841 40060,6917.908,95.438,540.826,538.72,0.0
52847.0,STARLINK-4206,PAYLOAD,2023-03-04 22:27:32,15.08833398,0.000202,53.2157,295.5975,98.8046,261.3175,4.3182e-05,3.99e-06,0.0,0 STARLINK-4206,1 52847U 22062T   23063.93579465  .00000399  00000-0  43182-4 0  9993,2 52847  53.2157 295.5975 0002020  98.8046 261.3175 15.08833398 39614,6917.901,95.438,541.163,538.368,0.0
52847.0,STARLINK-4206,PAYLOAD,2023-03-05 01:38:19,15.0883571,0.0001007,53.2155,295.0018,88.71,271.4008,0.00037671,5.712e-05,0.0,0 STARLINK-4206,1 52847U 22062T   23064.06827589  .00005712  00000-0  37671-3 0  9990,2 52847  53.2155 295.0018 0001007  88.7100 271.4008 15.08835710 40123,6917.894,95.438,540.455,539.062,0.0
52847.0,STARLINK-4206,PAYLOAD,2023-03-05 22:18:20,15.08841373,6.85e-05,53.2135,291.1375,87.9111,272.196,0.0012549,0.00019741,0.0,0 STARLINK-4206,1 52847U 22062T   23064.92940217  .00019741  00000-0  12549-2 0  9992,2 52847  53.2135 291.1375 0000685  87.9111 272.1960 15.08841373 39763,6917.876,95.437,540.215,539.267,0.0
52847.0,STARLINK-4206,PAYLOAD,2023-03-05 23:53:43,15.088571,8.99e-05,53.2142,290.8401,91.9564,268.1531,0.0013842,0.0002182,0.0,0 STARLINK-4206,1 52847U 22062T   23064.99563978  .00021820  00000-0  13842-2 0  9992,2 52847  53.2142 290.8401 0000899  91.9564 268.1531 15.08857100 40262,6917.828,95.436,540.315,539.071,0.0
52847.0,STARLINK-4206,PAYLOAD,2023-03-07 02:55:16,15.08873369,9.44e-05,53.2137,285.7839,116.9562,243.1527,0.0017382,0.00027509,0.0,0 STARLINK-4206,1 52847U 22062T   23066.12171500  .00027509  00000-0  17382-2 0  9998,2 52847  53.2137 285.7839 0000944 116.9562 243.1527 15.08873369 40433,6917.778,95.435,540.296,538.99,0.0
52847.0,STARLINK-4206,PAYLOAD,2023-03-07 21:59:54,15.08858287,0.0001091,53.2133,282.2163,97.2952,262.8164,0.0024468,0.00038887,0.0,0 STARLINK-4206,1 52847U 22062T   23066.91659761  .00038887  00000-0  24468-2 0  9999,2 52847  53.2133 282.2163 0001091  97.2952 262.8164 15.08858287 40559,6917.824,95.436,540.444,538.935,0.0
52847.0,STARLINK-4206,PAYLOAD,2023-03-08 05:56:50,15.08828443,0.0001235,53.213,280.7296,71.3881,288.7245,-0.00033327,-5.586e-05,0.0,0 STARLINK-4206,1 52847U 22062T   23067.24780142 -.00005586  00000-0 -33327-3 0  9991,2 52847  53.2130 280.7296 0001235  71.3881 288.7245 15.08828443 40604,6917.916,95.438,540.635,538.926,0.0
52847.0,STARLINK-4206,PAYLOAD,2023-03-08 20:15:18,15.08845241,0.0001089,53.2129,278.0526,78.7744,281.3371,0.002004,0.00031754,0.0,0 STARLINK-4206,1 52847U 22062T   23067.84396447  .00031754  00000-0  20040-2 0  9999,2 52847  53.2129 278.0526 0001089  78.7744 281.3371 15.08845241 40204,6917.864,95.437,540.483,538.976,0.0
52847.0,STARLINK-4206,PAYLOAD,2023-03-08 23:26:05,15.0885167,0.0001071,53.2128,277.4579,78.4327,281.6785,0.0030504,0.0004861,0.0,0 STARLINK-4206,1 52847U 22062T   23067.97644700  .00048610  00000-0  30504-2 0  9996,2 52847  53.2128 277.4579 0001071  78.4327 281.6785 15.08851670 40710,6917.845,95.437,540.451,538.969,0.0
52847.0,STARLINK-4206,PAYLOAD,2023-03-09 04:12:14,15.08831724,0.0001355,53.2128,276.5653,71.7769,288.337,0.0007077,0.0001099,0.0,0 STARLINK-4206,1 52847U 22062T   23068.17516787  .00010990  00000-0  70770-3 0  9992,2 52847  53.2128 276.5653 0001355  71.7769 288.3370 15.08831724 40749,6917.906,95.438,540.708,538.833,0.0
52847.0,STARLINK-4206,PAYLOAD,2023-03-09 20:06:05,15.08864734,0.0001124,53.213,273.5913,77.3748,282.737,0.0020469,0.00032461,0.0,0 STARLINK-4206,1 52847U 22062T   23068.83756491  .00032461  00000-0  20469-2 0  9999,2 52847  53.2130 273.5913 0001124  77.3748 282.7370 15.08864734 40847,6917.805,95.436,540.447,538.892,0.0
52847.0,STARLINK-4206,PAYLOAD,2023-03-10 04:03:01,15.08838782,0.0001483,53.2132,272.1045,74.5679,285.5477,-0.000261,-4.439e-05,0.0,0 STARLINK-4206,1 52847U 22062T   23069.16876554 -.00004439  00000-0 -26100-3 0  9994,2 52847  53.2132 272.1045 0001483  74.5679 285.5477 15.08838782 40898,6917.884,95.438,540.775,538.723,0.0
52847.0,STARLINK-4206,PAYLOAD,2023-03-10 19:56:52,15.08847099,0.0001066,53.2139,269.1302,91.6013,268.5101,0.0015062,0.00023769,0.0,0 STARLINK-4206,1 52847U 22062T   23069.83116599  .00023769  00000-0  15062-2 0  9993,2 52847  53.2139 269.1302 0001066  91.6013 268.5101 15.08847099 40500,6917.859,95.437,540.461,538.986,0.0
52847.0,STARLINK-4206,PAYLOAD,2023-03-11 00:43:02,15.0885509,0.0001135,53.214,268.2383,93.0308,267.0814,0.0019448,0.00030812,0.0,0 STARLINK-4206,1 52847U 22062T   23070.02988560  .00030812  00000-0  19448-2 0  9990,2 52847  53.2140 268.2383 0001135  93.0308 267.0814 15.08855090 41024,6917.834,95.437,540.484,538.914,0.0
